{
  "type": "FeatureCollection",
  "features": [
    {
      "type": "Feature",
      "properties": {"name": "Lima Metropolitana"},
      "geometry": {"type": "Polygon","coordinates": [[[-77.2,-12.5],[-76.8,-12.5],[-76.8,-12.0],[-77.2,-12.0],[-77.2,-12.5]]]}
    },
    {
      "type": "Feature",
      "properties": {"name": "La Libertad"},
      "geometry": {"type": "Polygon","coordinates": [[[-79.5,-8.5],[-78.5,-8.5],[-78.5,-7.5],[-79.5,-7.5],[-79.5,-8.5]]]}
    },
    {
      "type": "Feature",
      "properties": {"name": "Piura"},
      "geometry": {"type": "Polygon","coordinates": [[[-81,-6],[-80,-6],[-80,-5],[-81,-5],[-81,-6]]]}
    },
    {
      "type": "Feature",
      "properties": {"name": "Arequipa"},
      "geometry": {"type": "Polygon","coordinates": [[[-72,-17],[-71,-17],[-71,-16],[-72,-16],[-72,-17]]]}
    }
  ]
}